{"type": "FeatureCollection", "features": [ {"type": "Feature", "properties": {"norad_id": 41335, "name": "SENTINEL-3A", "group": "resource", "lat": -32.27311276024526, "lon": 48.950717732319966, "alt_km": 809.0745310999564, "timestamp": "2025-12-04T07:39:35.827747+00:00", "meta": {"OBJECT_NAME": "SENTINEL-3A", "OBJECT_ID": "2016-011A", "EPOCH": "2025-12-03T23:23:50.249760", "MEAN_MOTION": 14.26741388, "ECCENTRICITY": 9.847e-05, "INCLINATION": 98.6219, "RA_OF_ASC_NODE": 43.1133, "ARG_OF_PERICENTER": 91.1644, "MEAN_ANOMALY": 268.9649, "EPHEMERIS_TYPE": 0, "CLASSIFICATION_TYPE": "U", "NORAD_CAT_ID": 41335, "ELEMENT_SET_NO": 999, "REV_AT_EPOCH": 51022, "BSTAR": 0.00014380507, "MEAN_MOTION_DOT": 3.04e-06, "MEAN_MOTION_DDOT": 0}, "tle": {"line1": "1 41335U 16011A   25337.97488715  .00000304  00000+0  14381-3 0  9990", "line2": "2 41335  98.6219  43.1133 0000984  91.1644 268.9649 14.26741388510222"}}, "geometry": {"type": "Point", "coordinates": [48.950717732319966, -32.27311276024526]}}, {"type": "Feature", "properties": {"norad_id": 41556, "name": "ZIYUAN 3-2 (ZY 3-2)", "group": "resource", "lat": 81.47044962909322, "lon": -67.22973295831517, "alt_km": 502.94809604471084, "timestamp": "2025-12-04T07:39:35.827757+00:00", "meta": {"OBJECT_NAME": "ZIYUAN 3-2 (ZY 3-2)", "OBJECT_ID": "2016-033A", "EPOCH": "2025-12-03T23:21:13.604832", "MEAN_MOTION": 15.21300557, "ECCENTRICITY": 0.0012461, "INCLINATION": 97.406, "RA_OF_ASC_NODE": 52.2847, "ARG_OF_PERICENTER": 283.3532, "MEAN_ANOMALY": 76.6315, "EPHEMERIS_TYPE": 0, "CLASSIFICATION_TYPE": "U", "NORAD_CAT_ID": 41556, "ELEMENT_SET_NO": 999, "REV_AT_EPOCH": 52830, "BSTAR": 0.00064846727, "MEAN_MOTION_DOT": 0.00014483, "MEAN_MOTION_DDOT": 0}, "tle": {"line1": "1 41556U 16033A   25337.97307413  .00014483  00000+0  64847-3 0  9999", "line2": "2 41556  97.4060  52.2847 0012461 283.3532  76.6315 15.21300557528302"}}, "geometry": {"type": "Point", "coordinates": [-67.22973295831517, 81.47044962909322]}}, {"type": "Feature", "properties": {"norad_id": 41599, "name": "CARTOSAT-2C", "group": "resource", "lat": 74.11713902846986, "lon": -116.8512063657246, "alt_km": 493.9780453869935, "timestamp": "2025-12-04T07:39:35.827766+00:00", "meta": {"OBJECT_NAME": "CARTOSAT-2C", "OBJECT_ID": "2016-040A", "EPOCH": "2025-12-03T23:18:00.789408", "MEAN_MOTION": 15.19153341, "ECCENTRICITY": 0.00109931, "INCLINATION": 97.4779, "RA_OF_ASC_NODE": 35.3112, "ARG_OF_PERICENTER": 91.4922, "MEAN_ANOMALY": 268.7571, "EPHEMERIS_TYPE": 0, "CLASSIFICATION_TYPE": "U", "NORAD_CAT_ID": 41599, "ELEMENT_SET_NO": 999, "REV_AT_EPOCH": 52407, "BSTAR": 3.9901355e-05, "MEAN_MOTION_DOT": 7.71e-06, "MEAN_MOTION_DDOT": 0}, "tle": {"line1": "1 41599U 16040A   25337.97084247  .00000771  00000+0  39901-4 0  9990", "line2": "2 41599  97.4779  35.3112 0010993  91.4922 268.7571 15.19153341524074"}}, "geometry": {"type": "Point", "coordinates": [-116.8512063657246, 74.11713902846986]}}, {"type": "Feature", "properties": {"norad_id": 41601, "name": "SKYSAT-C1", "group": "resource", "lat": 60.43464410284037, "lon": -151.71154050808195, "alt_km": 462.6850068836311, "timestamp": "2025-12-04T07:39:35.827776+00:00", "meta": {"OBJECT_NAME": "SKYSAT-C1", "OBJECT_ID": "2016-040C", "EPOCH": "2025-12-03T20:10:22.997280", "MEAN_MOTION": 15.32337089, "ECCENTRICITY": 0.00032735, "INCLINATION": 96.9836, "RA_OF_ASC_NODE": 15.3577, "ARG_OF_PERICENTER": 37.9507, "MEAN_ANOMALY": 322.1966, "EPHEMERIS_TYPE": 0, "CLASSIFICATION_TYPE": "U", "NORAD_CAT_ID": 41601, "ELEMENT_SET_NO": 999, "REV_AT_EPOCH": 52791, "BSTAR": 0.00054117348, "MEAN_MOTION_DOT": 0.00016845, "MEAN_MOTION_DDOT": 0}, "tle": {"line1": "1 41601U 16040C   25337.84054395  .00016845  00000+0  54117-3 0  9995", "line2": "2 41601  96.9836  15.3577 0003273  37.9507 322.1966 15.32337089527913"}}, "geometry": {"type": "Point", "coordinates": [-151.71154050808195, 60.43464410284037]}}, {"type": "Feature", "properties": {"norad_id": 41603, "name": "LAPAN-A3", "group": "resource", "lat": -67.25115287655264, "lon": -6.41732443060435, "alt_km": 476.6517698056259, "timestamp": "2025-12-04T07:39:35.827785+00:00", "meta": {"OBJECT_NAME": "LAPAN-A3", "OBJECT_ID": "2016-040E", "EPOCH": "2025-12-04T00:07:00.152832", "MEAN_MOTION": 15.31443916, "ECCENTRICITY": 0.00107737, "INCLINATION": 97.142, "RA_OF_ASC_NODE": 335.8801, "ARG_OF_PERICENTER": 6.1647, "MEAN_ANOMALY": 353.9725, "EPHEMERIS_TYPE": 0, "CLASSIFICATION_TYPE": "U", "NORAD_CAT_ID": 41603, "ELEMENT_SET_NO": 999, "REV_AT_EPOCH": 52492, "BSTAR": 0.0002335289, "MEAN_MOTION_DOT": 7.029e-05, "MEAN_MOTION_DDOT": 0}, "tle": {"line1": "1 41603U 16040E   25338.00486288  .00007029  00000+0  23353-3 0  9998", "line2": "2 41603  97.1420 335.8801 0010773   6.1647 353.9725 15.31443916524922"}}, "geometry": {"type": "Point", "coordinates": [-6.41732443060435, -67.25115287655264]}}, {"type": "Feature", "properties": {"norad_id": 41604, "name": "BIROS", "group": "resource", "lat": -26.146735649941544, "lon": -174.05662757668838, "alt_km": 317.28973526325626, "timestamp": "2025-12-04T07:39:35.827795+00:00", "meta": {"OBJECT_NAME": "BIROS", "OBJECT_ID": "2016-040F", "EPOCH": "2025-12-03T15:39:03.830688", "MEAN_MOTION": 15.85955508, "ECCENTRICITY": 0.000267, "INCLINATION": 97.0704, "RA_OF_ASC_NODE": 8.7463, "ARG_OF_PERICENTER": 173.7344, "MEAN_ANOMALY": 186.3961, "EPHEMERIS_TYPE": 0, "CLASSIFICATION_TYPE": "U", "NORAD_CAT_ID": 41604, "ELEMENT_SET_NO": 999, "REV_AT_EPOCH": 52728, "BSTAR": 0.0007234422, "MEAN_MOTION_DOT": 0.00179801, "MEAN_MOTION_DDOT": 0}, "tle": {"line1": "1 41604U 16040F   25337.65212767  .00179801  00000+0  72344-3 0  9990", "line2": "2 41604  97.0704   8.7463 0002670 173.7344 186.3961 15.85955508527285"}}, "geometry": {"type": "Point", "coordinates": [-174.05662757668838, -26.146735649941544]}}, {"type": "Feature", "properties": {"norad_id": 41727, "name": "GAOFEN-3", "group": "resource", "lat": -69.3274240623109, "lon": 140.96695303711445, "alt_km": 759.5952694235484, "timestamp": "2025-12-04T07:39:35.827805+00:00", "meta": {"OBJECT_NAME": "GAOFEN-3", "OBJECT_ID": "2016-049A", "EPOCH": "2025-12-03T23:50:21.540768", "MEAN_MOTION": 14.42209803, "ECCENTRICITY": 0.00015861, "INCLINATION": 98.4041, "RA_OF_ASC_NODE": 343.7129, "ARG_OF_PERICENTER": 72.3206, "MEAN_ANOMALY": 287.8156, "EPHEMERIS_TYPE": 0, "CLASSIFICATION_TYPE": "U", "NORAD_CAT_ID": 41727, "ELEMENT_SET_NO": 999, "REV_AT_EPOCH": 49051, "BSTAR": 4.153363e-06, "MEAN_MOTION_DOT": -3e-07, "MEAN_MOTION_DDOT": 0}, "tle": {"line1": "1 41727U 16049A   25337.99330487 -.00000030  00000+0  41534-5 0  9999", "line2": "2 41727  98.4041 343.7129 0001586  72.3206 287.8156 14.42209803490517"}}, "geometry": {"type": "Point", "coordinates": [140.96695303711445, -69.3274240623109]}}, {"type": "Feature", "properties": {"norad_id": 41771, "name": "SKYSAT-C4", "group": "resource", "lat": 55.78011103252933, "lon": -165.76605569351668, "alt_km": 434.82538257142187, "timestamp": "2025-12-04T07:39:35.827814+00:00", "meta": {"OBJECT_NAME": "SKYSAT-C4", "OBJECT_ID": "2016-058B", "EPOCH": "2025-12-03T15:33:00.608544", "MEAN_MOTION": 15.41844352, "ECCENTRICITY": 7.467e-05, "INCLINATION": 96.9383, "RA_OF_ASC_NODE": 3.2807, "ARG_OF_PERICENTER": 117.0025, "MEAN_ANOMALY": 243.13, "EPHEMERIS_TYPE": 0, "CLASSIFICATION_TYPE": "U", "NORAD_CAT_ID": 41771, "ELEMENT_SET_NO": 999, "REV_AT_EPOCH": 51527, "BSTAR": 0.00046375394, "MEAN_MOTION_DOT": 0.0001961, "MEAN_MOTION_DDOT": 0}, "tle": {"line1": "1 41771U 16058B   25337.64792371  .00019610  00000+0  46375-3 0  9993", "line2": "2 41771  96.9383   3.2807 0000746 117.0025 243.1300 15.41844352515273"}}, "geometry": {"type": "Point", "coordinates": [-165.76605569351668, 55.78011103252933]}}, {"type": "Feature", "properties": {"norad_id": 41772, "name": "SKYSAT-C5", "group": "resource", "lat": -61.36843036386847, "lon": -170.75267887049327, "alt_km": 467.5332461025355, "timestamp": "2025-12-04T07:39:35.827824+00:00", "meta": {"OBJECT_NAME": "SKYSAT-C5", "OBJECT_ID": "2016-058C", "EPOCH": "2025-12-03T16:31:57.114336", "MEAN_MOTION": 15.35440065, "ECCENTRICITY": 0.00030621, "INCLINATION": 97.0806, "RA_OF_ASC_NODE": 21.8023, "ARG_OF_PERICENTER": 124.5892, "MEAN_ANOMALY": 235.5641, "EPHEMERIS_TYPE": 0, "CLASSIFICATION_TYPE": "U", "NORAD_CAT_ID": 41772, "ELEMENT_SET_NO": 999, "REV_AT_EPOCH": 51377, "BSTAR": 0.0025572225, "MEAN_MOTION_DOT": 0.00088899, "MEAN_MOTION_DDOT": 0}, "tle": {"line1": "1 41772U 16058C   25337.68885549  .00088899  00000+0  25572-2 0  9998", "line2": "2 41772  97.0806  21.8023 0003062 124.5892 235.5641 15.35440065513773"}}, "geometry": {"type": "Point", "coordinates": [-170.75267887049327, -61.36843036386847]}}, {"type": "Feature", "properties": {"norad_id": 41773, "name": "SKYSAT-C2", "group": "resource", "lat": -17.79808404551804, "lon": -179.06758406809297, "alt_km": 462.9096555210417, "timestamp": "2025-12-04T07:39:35.827833+00:00", "meta": {"OBJECT_NAME": "SKYSAT-C2", "OBJECT_ID": "2016-058D", "EPOCH": "2025-12-03T19:51:52.184448", "MEAN_MOTION": 15.36958059, "ECCENTRICITY": 0.00050629, "INCLINATION": 97.0367, "RA_OF_ASC_NODE": 2.7345, "ARG_OF_PERICENTER": 57.0496, "MEAN_ANOMALY": 303.1235, "EPHEMERIS_TYPE": 0, "CLASSIFICATION_TYPE": "U", "NORAD_CAT_ID": 41773, "ELEMENT_SET_NO": 999, "REV_AT_EPOCH": 51499, "BSTAR": 0.00056123666, "MEAN_MOTION_DOT": 0.00020246, "MEAN_MOTION_DDOT": 0}, "tle": {"line1": "1 41773U 16058D   25337.82768732  .00020246  00000+0  56124-3 0  9999", "line2": "2 41773  97.0367   2.7345 0005062  57.0496 303.1235 15.36958059514997"}}, "geometry": {"type": "Point", "coordinates": [-179.06758406809297, -17.79808404551804]}}]}